[{"OBJECT_NAME":"BEIDOU-3 M20 (C42)","OBJECT_ID":"2019-090B","EPOCH":"2026-03-28T12:29:18.520800","MEAN_MOTION":1.86231097,"ECCENTRICITY":0.00179139,"INCLINATION":56.4922,"RA_OF_ASC_NODE":65.4894,"ARG_OF_PERICENTER":305.5253,"MEAN_ANOMALY":235.0059,"EPHEMERIS_TYPE":0,"CLASSIFICATION_TYPE":"U","NORAD_CAT_ID":44865,"ELEMENT_SET_NO":999,"REV_AT_EPOCH":4271,"BSTAR":0,"MEAN_MOTION_DOT":-3.0e-8,"MEAN_MOTION_DDOT":0},{"OBJECT_NAME":"BEIDOU-3 G2 (C60)","OBJECT_ID":"2020-017A","EPOCH":"2026-03-28T22:00:39.023712","MEAN_MOTION":1.00271976,"ECCENTRICITY":0.00025567,"INCLINATION":2.7041,"RA_OF_ASC_NODE":46.0121,"ARG_OF_PERICENTER":322.4928,"MEAN_ANOMALY":228.0139,"EPHEMERIS_TYPE":0,"CLASSIFICATION_TYPE":"U","NORAD_CAT_ID":45344,"ELEMENT_SET_NO":999,"REV_AT_EPOCH":2245,"BSTAR":0,"MEAN_MOTION_DOT":-1.57e-6,"MEAN_MOTION_DDOT":0},{"OBJECT_NAME":"COSMOS 2545 (760)","OBJECT_ID":"2020-018A","EPOCH":"2026-03-26T03:58:22.686240","MEAN_MOTION":2.13102438,"ECCENTRICITY":0.00074746,"INCLINATION":64.4042,"RA_OF_ASC_NODE":315.3386,"ARG_OF_PERICENTER":246.9709,"MEAN_ANOMALY":113.0018,"EPHEMERIS_TYPE":0,"CLASSIFICATION_TYPE":"U","NORAD_CAT_ID":45358,"ELEMENT_SET_NO":999,"REV_AT_EPOCH":4689,"BSTAR":0,"MEAN_MOTION_DOT":-2.8e-7,"MEAN_MOTION_DDOT":0},{"OBJECT_NAME":"BEIDOU-3 G3 (C61)","OBJECT_ID":"2020-040A","EPOCH":"2026-03-28T22:09:23.185728","MEAN_MOTION":1.00272788,"ECCENTRICITY":0.0004132,"INCLINATION":2.2506,"RA_OF_ASC_NODE":67.1894,"ARG_OF_PERICENTER":321.0263,"MEAN_ANOMALY":241.0214,"EPHEMERIS_TYPE":0,"CLASSIFICATION_TYPE":"U","NORAD_CAT_ID":45807,"ELEMENT_SET_NO":999,"REV_AT_EPOCH":2126,"BSTAR":0,"MEAN_MOTION_DOT":-3.71e-6,"MEAN_MOTION_DDOT":0},{"OBJECT_NAME":"GPS BIII-3  (PRN 23)","OBJECT_ID":"2020-041A","EPOCH":"2026-03-28T16:57:19.643904","MEAN_MOTION":2.00560091,"ECCENTRICITY":0.00616586,"INCLINATION":56.6214,"RA_OF_ASC_NODE":32.0661,"ARG_OF_PERICENTER":205.253,"MEAN_ANOMALY":331.039,"EPHEMERIS_TYPE":0,"CLASSIFICATION_TYPE":"U","NORAD_CAT_ID":45854,"ELEMENT_SET_NO":999,"REV_AT_EPOCH":4242,"BSTAR":0,"MEAN_MOTION_DOT":-8.2e-7,"MEAN_MOTION_DDOT":0},{"OBJECT_NAME":"GALAXY 30 (WAAS/PRN 135)","OBJECT_ID":"2020-056C","EPOCH":"2026-03-28T15:54:06.383232","MEAN_MOTION":1.00270179,"ECCENTRICITY":0.00021676,"INCLINATION":0.0233,"RA_OF_ASC_NODE":174.1278,"ARG_OF_PERICENTER":207.0001,"MEAN_ANOMALY":278.4714,"EPHEMERIS_TYPE":0,"CLASSIFICATION_TYPE":"U","NORAD_CAT_ID":46114,"ELEMENT_SET_NO":999,"REV_AT_EPOCH":2048,"BSTAR":0,"MEAN_MOTION_DOT":0,"MEAN_MOTION_DDOT":0},{"OBJECT_NAME":"COSMOS 2547 (705K)","OBJECT_ID":"2020-075A","EPOCH":"2026-03-27T18:17:20.941152","MEAN_MOTION":2.13100219,"ECCENTRICITY":0.00073709,"INCLINATION":64.5985,"RA_OF_ASC_NODE":195.1905,"ARG_OF_PERICENTER":232.5213,"MEAN_ANOMALY":127.4084,"EPHEMERIS_TYPE":0,"CLASSIFICATION_TYPE":"U","NORAD_CAT_ID":46805,"ELEMENT_SET_NO":999,"REV_AT_EPOCH":4217,"BSTAR":0,"MEAN_MOTION_DOT":-3.1e-7,"MEAN_MOTION_DDOT":0},{"OBJECT_NAME":"GPS BIII-4  (PRN 14)","OBJECT_ID":"2020-078A","EPOCH":"2026-03-28T17:56:32.144064","MEAN_MOTION":2.00565106,"ECCENTRICITY":0.0069585,"INCLINATION":53.9956,"RA_OF_ASC_NODE":214.0394,"ARG_OF_PERICENTER":204.9432,"MEAN_ANOMALY":334.9477,"EPHEMERIS_TYPE":0,"CLASSIFICATION_TYPE":"U","NORAD_CAT_ID":46826,"ELEMENT_SET_NO":999,"REV_AT_EPOCH":3989,"BSTAR":0,"MEAN_MOTION_DOT":-4.0e-7,"MEAN_MOTION_DDOT":0},{"OBJECT_NAME":"GPS BIII-5  (PRN 11)","OBJECT_ID":"2021-054A","EPOCH":"2026-03-26T22:14:18.259008","MEAN_MOTION":2.00573998,"ECCENTRICITY":0.00238337,"INCLINATION":55.2106,"RA_OF_ASC_NODE":335.7679,"ARG_OF_PERICENTER":231.2619,"MEAN_ANOMALY":258.626,"EPHEMERIS_TYPE":0,"CLASSIFICATION_TYPE":"U","NORAD_CAT_ID":48859,"ELEMENT_SET_NO":999,"REV_AT_EPOCH":3510,"BSTAR":0,"MEAN_MOTION_DOT":-8.6e-7,"MEAN_MOTION_DDOT":0},{"OBJECT_NAME":"QZS-1R (QZSS/PRN 196)","OBJECT_ID":"2021-096A","EPOCH":"2026-03-28T20:31:17.592672","MEAN_MOTION":1.0028248,"ECCENTRICITY":0.07493261,"INCLINATION":37.2973,"RA_OF_ASC_NODE":80.7659,"ARG_OF_PERICENTER":270.2513,"MEAN_ANOMALY":278.3326,"EPHEMERIS_TYPE":0,"CLASSIFICATION_TYPE":"U","NORAD_CAT_ID":49336,"ELEMENT_SET_NO":999,"REV_AT_EPOCH":1620,"BSTAR":0,"MEAN_MOTION_DOT":-2.31e-6,"MEAN_MOTION_DDOT":0},{"OBJECT_NAME":"GSAT0223 (GALILEO 27)","OBJECT_ID":"2021-116A","EPOCH":"2026-03-26T13:48:11.384928","MEAN_MOTION":1.70475251,"ECCENTRICITY":0.0001802,"INCLINATION":57.1864,"RA_OF_ASC_NODE":343.9082,"ARG_OF_PERICENTER":284.715,"MEAN_ANOMALY":254.2688,"EPHEMERIS_TYPE":0,"CLASSIFICATION_TYPE":"U","NORAD_CAT_ID":49809,"ELEMENT_SET_NO":999,"REV_AT_EPOCH":2677,"BSTAR":0,"MEAN_MOTION_DOT":-9.5e-7,"MEAN_MOTION_DDOT":0},{"OBJECT_NAME":"GSAT0224 (GALILEO 28)","OBJECT_ID":"2021-116B","EPOCH":"2026-03-24T01:06:44.149248","MEAN_MOTION":1.70475197,"ECCENTRICITY":0.00012871,"INCLINATION":57.188,"RA_OF_ASC_NODE":343.9758,"ARG_OF_PERICENTER":309.9434,"MEAN_ANOMALY":229.6785,"EPHEMERIS_TYPE":0,"CLASSIFICATION_TYPE":"U","NORAD_CAT_ID":49810,"ELEMENT_SET_NO":999,"REV_AT_EPOCH":2675,"BSTAR":0,"MEAN_MOTION_DOT":-8.5e-7,"MEAN_MOTION_DDOT":0},{"OBJECT_NAME":"COSMOS 2557 (706K)","OBJECT_ID":"2022-075A","EPOCH":"2026-03-28T09:30:36.463104","MEAN_MOTION":2.13101758,"ECCENTRICITY":0.0010963,"INCLINATION":64.3446,"RA_OF_ASC_NODE":317.3335,"ARG_OF_PERICENTER":283.619,"MEAN_ANOMALY":76.3135,"EPHEMERIS_TYPE":0,"CLASSIFICATION_TYPE":"U","NORAD_CAT_ID":52984,"ELEMENT_SET_NO":999,"REV_AT_EPOCH":2899,"BSTAR":0,"MEAN_MOTION_DOT":-3.1e-7,"MEAN_MOTION_DDOT":0},{"OBJECT_NAME":"COSMOS 2559 (707K)","OBJECT_ID":"2022-130A","EPOCH":"2026-03-27T06:39:07.070688","MEAN_MOTION":2.13101261,"ECCENTRICITY":0.0010826,"INCLINATION":64.318,"RA_OF_ASC_NODE":317.4582,"ARG_OF_PERICENTER":178.2697,"MEAN_ANOMALY":181.7868,"EPHEMERIS_TYPE":0,"CLASSIFICATION_TYPE":"U","NORAD_CAT_ID":54031,"ELEMENT_SET_NO":999,"REV_AT_EPOCH":2694,"BSTAR":0,"MEAN_MOTION_DOT":-3.1e-7,"MEAN_MOTION_DDOT":0},{"OBJECT_NAME":"COSMOS 2564 (761)","OBJECT_ID":"2022-161A","EPOCH":"2026-03-28T12:40:52.220352","MEAN_MOTION":2.13101826,"ECCENTRICITY":0.00101426,"INCLINATION":64.7402,"RA_OF_ASC_NODE":195.3871,"ARG_OF_PERICENTER":214.6858,"MEAN_ANOMALY":145.2434,"EPHEMERIS_TYPE":0,"CLASSIFICATION_TYPE":"U","NORAD_CAT_ID":54377,"ELEMENT_SET_NO":999,"REV_AT_EPOCH":2591,"BSTAR":0,"MEAN_MOTION_DOT":-3.5e-7,"MEAN_MOTION_DDOT":0},{"OBJECT_NAME":"GPS BIII-6  (PRN 28)","OBJECT_ID":"2023-009A","EPOCH":"2026-03-28T04:24:38.672352","MEAN_MOTION":2.00547447,"ECCENTRICITY":0.00053805,"INCLINATION":55.1104,"RA_OF_ASC_NODE":151.7031,"ARG_OF_PERICENTER":326.6502,"MEAN_ANOMALY":28.0595,"EPHEMERIS_TYPE":0,"CLASSIFICATION_TYPE":"U","NORAD_CAT_ID":55268,"ELEMENT_SET_NO":999,"REV_AT_EPOCH":2361,"BSTAR":0,"MEAN_MOTION_DOT":0,"MEAN_MOTION_DDOT":0},{"OBJECT_NAME":"BEIDOU-3 G4 (C62)","OBJECT_ID":"2023-066A","EPOCH":"2026-03-13T04:10:32.176992","MEAN_MOTION":1.00272296,"ECCENTRICITY":0.00026474,"INCLINATION":0.6336,"RA_OF_ASC_NODE":312.1088,"ARG_OF_PERICENTER":153.4351,"MEAN_ANOMALY":287.9442,"EPHEMERIS_TYPE":0,"CLASSIFICATION_TYPE":"U","NORAD_CAT_ID":56564,"ELEMENT_SET_NO":999,"REV_AT_EPOCH":1043,"BSTAR":0,"MEAN_MOTION_DOT":-1.11e-6,"MEAN_MOTION_DDOT":0}]
